{"fetched_at":"2026-07-13T07:48:05.055Z","source":"https://celestrak.org/NORAD/elements/gp.php?GROUP=stations&FORMAT=JSON","constellation":"crewed-vehicles","records":[{"OBJECT_NAME":"SOYUZ-MS 28","OBJECT_ID":"2025-275A","EPOCH":"2026-07-12T19:10:09.377760","CLASSIFICATION_TYPE":"U","MEAN_MOTION":15.48994114,"ECCENTRICITY":0.0006695,"INCLINATION":51.6301,"RA_OF_ASC_NODE":173.3406,"ARG_OF_PERICENTER":288.1916,"MEAN_ANOMALY":71.8344,"EPHEMERIS_TYPE":0,"NORAD_CAT_ID":66664,"ELEMENT_SET_NO":999,"REV_AT_EPOCH":64631,"BSTAR":0.000095802,"MEAN_MOTION_DOT":0.00004831,"MEAN_MOTION_DDOT":0},{"OBJECT_NAME":"CREW DRAGON 12","OBJECT_ID":"2026-031A","EPOCH":"2026-07-12T19:10:09.377760","CLASSIFICATION_TYPE":"U","MEAN_MOTION":15.48994114,"ECCENTRICITY":0.0006695,"INCLINATION":51.6301,"RA_OF_ASC_NODE":173.3406,"ARG_OF_PERICENTER":288.1916,"MEAN_ANOMALY":71.8344,"EPHEMERIS_TYPE":0,"NORAD_CAT_ID":67796,"ELEMENT_SET_NO":999,"REV_AT_EPOCH":62858,"BSTAR":0.000095802,"MEAN_MOTION_DOT":0.00004831,"MEAN_MOTION_DDOT":0},{"OBJECT_NAME":"SHENZHOU-23 (SZ-23)","OBJECT_ID":"2026-113A","EPOCH":"2026-07-12T07:55:55.916256","CLASSIFICATION_TYPE":"U","MEAN_MOTION":15.58035041,"ECCENTRICITY":0.00024282,"INCLINATION":41.4686,"RA_OF_ASC_NODE":169.1964,"ARG_OF_PERICENTER":290.9815,"MEAN_ANOMALY":69.0763,"EPHEMERIS_TYPE":0,"NORAD_CAT_ID":69180,"ELEMENT_SET_NO":999,"REV_AT_EPOCH":29605,"BSTAR":0.000014700842,"MEAN_MOTION_DOT":0.00000806,"MEAN_MOTION_DDOT":0}]}
