SOYUZ-MS 28             
1 66664U 25275A   26193.79871965  .00004831  00000+0  95802-4 0  9995
2 66664  51.6301 173.3406 0006695 288.1916  71.8344 15.48994114646314
CREW DRAGON 12          
1 67796U 26031A   26193.79871965  .00004831  00000+0  95802-4 0  9993
2 67796  51.6301 173.3406 0006695 288.1916  71.8344 15.48994114628580
SHENZHOU-23 (SZ-23)     
1 69180U 26113A   26193.33050829  .00000806  00000+0  14701-4 0  9998
2 69180  41.4686 169.1964 0002428 290.9815  69.0763 15.58035041296056
